OBJECT_NAME,OBJECT_ID,EPOCH,MEAN_MOTION,ECCENTRICITY,INCLINATION,RA_OF_ASC_NODE,ARG_OF_PERICENTER,MEAN_ANOMALY,EPHEMERIS_TYPE,CLASSIFICATION_TYPE,NORAD_CAT_ID,ELEMENT_SET_NO,REV_AT_EPOCH,BSTAR,MEAN_MOTION_DOT,MEAN_MOTION_DDOT
TERRA,1999-068A,2006-06-21T04:42:07.981344,14.57103503,.000096,98.2114,246.6115,100.6774,259.4538,0,U,25994,488,34613,.21282E-4,.51E-6,0
TERRA,1999-068A,2006-06-21T09:38:47.215104,14.57103508,.0000961,98.2114,246.8146,100.7996,259.3308,0,U,25994,489,34616,.21217E-4,.5E-6,0
TERRA,1999-068A,2006-06-21T21:10:58.780128,14.57103392,.0000958,98.2115,247.2886,99.9773,260.1524,0,U,25994,490,34623,.13142E-4,.14E-6,0
TERRA,1999-068A,2006-06-22T03:46:31.121760,14.57103675,.0000966,98.2119,247.5594,99.8845,260.2478,0,U,25994,491,34627,.20013E-4,.45E-6,0
TERRA,1999-068A,2006-06-22T07:04:17.257152,14.57103723,.0000948,98.2119,247.6949,99.5536,260.5770,0,U,25994,492,34629,.22128E-4,.54E-6,0
TERRA,1999-068A,2006-06-22T07:04:17.257152,14.57103723,.0000948,98.2119,247.6949,99.5536,260.5770,0,U,25994,493,34629,.22128E-4,.54E-6,0
TERRA,1999-068A,2006-06-22T18:36:28.816992,14.57103767,.0000965,98.2122,248.1691,99.5097,260.6204,0,U,25994,494,34636,.2302E-4,.58E-6,0
TERRA,1999-068A,2006-06-22T21:54:14.986944,14.57103641,.0000968,98.2123,248.3045,99.1072,261.0227,0,U,25994,495,34638,.18642E-4,.39E-6,0
TERRA,1999-068A,2006-06-23T04:29:47.306112,14.57104015,.0000964,98.2125,248.5755,98.4989,261.6328,0,U,25994,495,34642,.28227E-4,.82E-6,0
TERRA,1999-068A,2006-06-23T11:05:19.611456,14.57104020,.0000964,98.2125,248.8463,99.3342,260.7967,0,U,25994,496,34646,.26469E-4,.74E-6,0
TERRA,1999-068A,2006-06-23T19:19:45.003936,14.57103824,.0000962,98.2126,249.1849,98.8808,261.2490,0,U,25994,497,34651,.15507E-4,.25E-6,0
TERRA,1999-068A,2006-06-23T20:58:38.100576,14.57103744,.000097,98.2127,249.2527,98.9986,261.1316,0,U,25994,498,34652,.14015E-4,.18E-6,0
TERRA,1999-068A,2006-06-24T03:34:10.429248,14.57104046,.0000958,98.2128,249.5235,100.1593,259.9730,0,U,25994,498,34656,.22269E-4,.55E-6,0
TERRA,1999-068A,2006-06-24T11:48:35.805312,14.57103917,.0000986,98.2129,249.8619,100.2814,259.8493,0,U,25994,499,34661,.14697E-4,.21E-6,0
TERRA,1999-068A,2006-06-24T18:24:08.108064,14.57104036,.0000982,98.2129,250.1329,99.8187,260.3115,0,U,25994,500,34665,.17603E-4,.34E-6,0
TERRA,1999-068A,2006-06-24T21:41:54.277152,14.57104000,.000099,98.2128,250.2683,99.4904,260.6401,0,U,25994,501,34667,.17749E-4,.35E-6,0
TERRA,1999-068A,2006-06-25T02:38:33.516096,14.57104330,.0000973,98.2129,250.4714,98.5635,261.5684,0,U,25994,501,34670,.28483E-4,.83E-6,0
TERRA,1999-068A,2006-06-25T22:25:10.423488,14.57104321,.0000971,98.2134,251.2841,98.5183,261.6117,0,U,25994,504,34682,.20792E-4,.48E-6,0
TERRA,1999-068A,2006-06-26T09:57:21.979872,14.57104353,.0000985,98.2133,251.7581,100.5426,259.5885,0,U,25994,505,34689,.18506E-4,.38E-6,0
TERRA,1999-068A,2006-06-26T18:11:47.359392,14.57104418,.0000999,98.2133,252.0967,99.7672,260.3639,0,U,25994,506,34694,.17603E-4,.34E-6,0
TERRA,1999-068A,2006-06-26T21:29:33.516384,14.57104356,.0000996,98.2131,252.2321,98.9966,261.1335,0,U,25994,507,34696,.1805E-4,.36E-6,0
TERRA,1999-068A,2006-06-27T04:05:05.832096,14.57104593,.0000973,98.2130,252.5030,97.1209,263.0112,0,U,25994,507,34700,.18855E-4,.4E-6,0
TERRA,1999-068A,2006-06-27T10:40:38.121888,14.57104701,.0000979,98.2130,252.7739,99.8151,260.3164,0,U,25994,508,34704,.2394E-4,.63E-6,0
TERRA,1999-068A,2006-06-27T20:33:56.573856,14.57104607,.0001004,98.2130,253.1801,100.4572,259.6731,0,U,25994,509,34710,.19187E-4,.41E-6,0
TERRA,1999-068A,2006-06-28T03:09:28.895616,14.57104680,.0001004,98.2128,253.4509,102.5461,257.5860,0,U,25994,510,34714,.17814E-4,.35E-6,0
TERRA,1999-068A,2006-06-28T09:45:01.187136,14.57104673,.0001011,98.2128,253.7218,102.5980,257.5334,0,U,25994,511,34718,.14725E-4,.21E-6,0
TERRA,1999-068A,2006-06-28T17:59:26.564064,14.57104545,.0001009,98.2127,254.0602,102.1024,258.0282,0,U,25994,512,34723,.71997E-5,-.13E-6,0
TERRA,1999-068A,2006-06-28T21:17:12.727104,14.57104417,.0001011,98.2127,254.1956,102.0013,258.1290,0,U,25994,513,34725,.47788E-5,-.24E-6,0
TERRA,1999-068A,2006-06-29T03:52:45.041088,14.57104787,.0001009,98.2125,254.4666,102.3119,257.8209,0,U,25994,513,34729,.14592E-4,.2E-6,0
TERRA,1999-068A,2006-06-29T10:28:17.311872,14.57104980,.0000987,98.2124,254.7376,102.6457,257.4853,0,U,25994,514,34733,.2405E-4,.63E-6,0
TERRA,1999-068A,2006-06-29T18:42:42.676704,14.57105167,.000102,98.2126,255.0763,104.0256,256.1058,0,U,25994,515,34738,.28391E-4,.83E-6,0
