1 25994U 99068A   06172.19592571  .00000051  00000-0  21282-4 0  4884
2 25994  98.2114 246.6115 0000960 100.6774 259.4538 14.57103503346133
1 25994U 99068A   06172.40193536  .00000050  00000-0  21217-4 0  4894
2 25994  98.2114 246.8146 0000961 100.7996 259.3308 14.57103508346169
1 25994U 99068A   06172.88262477  .00000014  00000-0  13142-4 0  4907
2 25994  98.2115 247.2886 0000958  99.9773 260.1524 14.57103392346233
1 25994U 99068A   06173.15730465  .00000045  00000-0  20013-4 0  4915
2 25994  98.2119 247.5594 0000966  99.8845 260.2478 14.57103675346271
1 25994U 99068A   06173.29464418  .00000054  00000-0  22128-4 0  4922
2 25994  98.2119 247.6949 0000948  99.5536 260.5770 14.57103723346294
1 25994U 99068A   06173.77533353  .00000058  00000-0  23020-4 0  4948
2 25994  98.2122 248.1691 0000965  99.5097 260.6204 14.57103767346368
1 25994U 99068A   06173.91267346  .00000039  00000-0  18642-4 0  4954
2 25994  98.2123 248.3045 0000968  99.1072 261.0227 14.57103641346389
1 25994U 99068A   06174.18735308  .00000082  00000-0  28227-4 0  4950
2 25994  98.2125 248.5755 0000964  98.4989 261.6328 14.57104015346425
1 25994U 99068A   06174.46203254  .00000074  00000-0  26469-4 0  4969
2 25994  98.2125 248.8463 0000964  99.3342 260.7967 14.57104020346466
1 25994U 99068A   06174.80538199  .00000025  00000-0  15507-4 0  4974
2 25994  98.2126 249.1849 0000962  98.8808 261.2490 14.57103824346512
1 25994U 99068A   06174.87405209  .00000018  00000-0  14015-4 0  4982
2 25994  98.2127 249.2527 0000970  98.9986 261.1316 14.57103744346522
1 25994U 99068A   06175.14873182  .00000055  00000-0  22269-4 0  4983
2 25994  98.2128 249.5235 0000958 100.1593 259.9730 14.57104046346563
1 25994U 99068A   06175.49208108  .00000021  00000-0  14697-4 0  4991
2 25994  98.2129 249.8619 0000986 100.2814 259.8493 14.57103917346618
1 25994U 99068A   06175.76676051  .00000034  00000-0  17603-4 0  5004
2 25994  98.2129 250.1329 0000982  99.8187 260.3115 14.57104036346658
1 25994U 99068A   06175.90410043  .00000035  00000-0  17749-4 0  5010
2 25994  98.2128 250.2683 0000990  99.4904 260.6401 14.57104000346677
1 25994U 99068A   06176.11011014  .00000083  00000-0  28483-4 0  5019
2 25994  98.2129 250.4714 0000973  98.5635 261.5684 14.57104330346700
1 25994U 99068A   06176.93414842  .00000048  00000-0  20792-4 0  5044
2 25994  98.2134 251.2841 0000971  98.5183 261.6117 14.57104321346827
1 25994U 99068A   06177.41483773  .00000038  00000-0  18506-4 0  5057
2 25994  98.2133 251.7581 0000985 100.5426 259.5885 14.57104353346891
1 25994U 99068A   06177.75818703  .00000034  00000-0  17603-4 0  5063
2 25994  98.2133 252.0967 0000999  99.7672 260.3639 14.57104418346945
1 25994U 99068A   06177.89552681  .00000036  00000-0  18050-4 0  5078
2 25994  98.2131 252.2321 0000996  98.9966 261.1335 14.57104356346968
1 25994U 99068A   06178.17020639  .00000040  00000-0  18855-4 0  5071
2 25994  98.2130 252.5030 0000973  97.1209 263.0112 14.57104593347006
1 25994U 99068A   06178.44488567  .00000063  00000-0  23940-4 0  5086
2 25994  98.2130 252.7739 0000979  99.8151 260.3164 14.57104701347047
1 25994U 99068A   06178.85690479  .00000041  00000-0  19187-4 0  5093
2 25994  98.2130 253.1801 0001004 100.4572 259.6731 14.57104607347101
1 25994U 99068A   06179.13158444  .00000035  00000-0  17814-4 0  5106
2 25994  98.2128 253.4509 0001004 102.5461 257.5860 14.57104680347141
1 25994U 99068A   06179.40626374  .00000021  00000-0  14725-4 0  5112
2 25994  98.2128 253.7218 0001011 102.5980 257.5334 14.57104673347187
1 25994U 99068A   06179.74961301 -.00000013  00000-0  71997-5 0  5129
2 25994  98.2127 254.0602 0001009 102.1024 258.0282 14.57104545347231
1 25994U 99068A   06179.88695286 -.00000024  00000-0  47788-5 0  5134
2 25994  98.2127 254.1956 0001011 102.0013 258.1290 14.57104417347254
1 25994U 99068A   06180.16163242  .00000020  00000-0  14592-4 0  5130
2 25994  98.2125 254.4666 0001009 102.3119 257.8209 14.57104787347290
1 25994U 99068A   06180.43631148  .00000063  00000-0  24050-4 0  5143
2 25994  98.2124 254.7376 0000987 102.6457 257.4853 14.57104980347333
1 25994U 99068A   06180.77966061  .00000083  00000-0  28391-4 0  5150
2 25994  98.2126 255.0763 0001020 104.0256 256.1058 14.57105167347387
